{"type": "FeatureCollection", "features": [ {"type": "Feature", "properties": {"norad_id": 66970, "name": "STARLINK-35703", "group": "last-30-days", "lat": 40.54436211651906, "lon": -170.03673759205577, "alt_km": 396.5757347284598, "timestamp": "2025-12-27T15:27:09.832584+00:00", "meta": {"OBJECT_NAME": "STARLINK-35703", "OBJECT_ID": "2025-288M", "EPOCH": "2025-12-27T06:00:02.000160", "MEAN_MOTION": 15.56813987, "ECCENTRICITY": 0.00014185, "INCLINATION": 43.0002, "RA_OF_ASC_NODE": 78.9184, "ARG_OF_PERICENTER": 277.166, "MEAN_ANOMALY": 141.6517, "EPHEMERIS_TYPE": 0, "CLASSIFICATION_TYPE": "U", "NORAD_CAT_ID": 66970, "ELEMENT_SET_NO": 999, "REV_AT_EPOCH": 416, "BSTAR": -0.03099228, "MEAN_MOTION_DOT": -0.02038511, "MEAN_MOTION_DDOT": 0}, "tle": {"line1": "1 66970U 25288M   25361.25002315 -.02038511  00000+0 -30992-1 0  9993", "line2": "2 66970  43.0002  78.9184 0001418 277.1660 141.6517 15.56813987  4168"}}, "geometry": {"type": "Point", "coordinates": [-170.03673759205577, 40.54436211651906]}}, {"type": "Feature", "properties": {"norad_id": 66971, "name": "STARLINK-35678", "group": "last-30-days", "lat": 42.94064395371462, "lon": 169.6256645002984, "alt_km": 396.2029727349691, "timestamp": "2025-12-27T15:27:09.832597+00:00", "meta": {"OBJECT_NAME": "STARLINK-35678", "OBJECT_ID": "2025-288N", "EPOCH": "2025-12-27T06:00:02.000160", "MEAN_MOTION": 15.56813285, "ECCENTRICITY": 0.00014148, "INCLINATION": 43.0001, "RA_OF_ASC_NODE": 78.9582, "ARG_OF_PERICENTER": 275.6309, "MEAN_ANOMALY": 127.85, "EPHEMERIS_TYPE": 0, "CLASSIFICATION_TYPE": "U", "NORAD_CAT_ID": 66971, "ELEMENT_SET_NO": 999, "REV_AT_EPOCH": 416, "BSTAR": -0.030968387, "MEAN_MOTION_DOT": -0.02037056, "MEAN_MOTION_DDOT": 0}, "tle": {"line1": "1 66971U 25288N   25361.25002315 -.02037056  00000+0 -30968-1 0  9990", "line2": "2 66971  43.0001  78.9582 0001414 275.6309 127.8500 15.56813285  4168"}}, "geometry": {"type": "Point", "coordinates": [169.6256645002984, 42.94064395371462]}}, {"type": "Feature", "properties": {"norad_id": 66972, "name": "STARLINK-34846", "group": "last-30-days", "lat": 42.8427342417889, "lon": 172.23575311842978, "alt_km": 396.3679996203873, "timestamp": "2025-12-27T15:27:09.832607+00:00", "meta": {"OBJECT_NAME": "STARLINK-34846", "OBJECT_ID": "2025-288P", "EPOCH": "2025-12-27T06:00:02.000160", "MEAN_MOTION": 15.56815839, "ECCENTRICITY": 0.00016114, "INCLINATION": 43.0002, "RA_OF_ASC_NODE": 78.9533, "ARG_OF_PERICENTER": 272.0657, "MEAN_ANOMALY": 133.3324, "EPHEMERIS_TYPE": 0, "CLASSIFICATION_TYPE": "U", "NORAD_CAT_ID": 66972, "ELEMENT_SET_NO": 999, "REV_AT_EPOCH": 416, "BSTAR": -0.031043533, "MEAN_MOTION_DOT": -0.02041775, "MEAN_MOTION_DDOT": 0}, "tle": {"line1": "1 66972U 25288P   25361.25002315 -.02041775  00000+0 -31044-1 0  9990", "line2": "2 66972  43.0002  78.9533 0001611 272.0657 133.3324 15.56815839  4165"}}, "geometry": {"type": "Point", "coordinates": [172.23575311842978, 42.8427342417889]}}, {"type": "Feature", "properties": {"norad_id": 66973, "name": "STARLINK-35778", "group": "last-30-days", "lat": 42.68495413378995, "lon": 174.8378277163818, "alt_km": 396.27670594970823, "timestamp": "2025-12-27T15:27:09.832618+00:00", "meta": {"OBJECT_NAME": "STARLINK-35778", "OBJECT_ID": "2025-288Q", "EPOCH": "2025-12-27T06:00:02.000160", "MEAN_MOTION": 15.56814474, "ECCENTRICITY": 0.00014565, "INCLINATION": 42.9999, "RA_OF_ASC_NODE": 78.9485, "ARG_OF_PERICENTER": 277.6, "MEAN_ANOMALY": 129.7142, "EPHEMERIS_TYPE": 0, "CLASSIFICATION_TYPE": "U", "NORAD_CAT_ID": 66973, "ELEMENT_SET_NO": 999, "REV_AT_EPOCH": 416, "BSTAR": -0.030998674, "MEAN_MOTION_DOT": -0.02038945, "MEAN_MOTION_DDOT": 0}, "tle": {"line1": "1 66973U 25288Q   25361.25002315 -.02038945  00000+0 -30999-1 0  9994", "line2": "2 66973  42.9999  78.9485 0001456 277.6000 129.7142 15.56814474  4166"}}, "geometry": {"type": "Point", "coordinates": [174.8378277163818, 42.68495413378995]}}, {"type": "Feature", "properties": {"norad_id": 66974, "name": "STARLINK-35780", "group": "last-30-days", "lat": 42.468441804813274, "lon": 177.42287077058123, "alt_km": 396.29970256083925, "timestamp": "2025-12-27T15:27:09.832628+00:00", "meta": {"OBJECT_NAME": "STARLINK-35780", "OBJECT_ID": "2025-288R", "EPOCH": "2025-12-27T06:00:02.000160", "MEAN_MOTION": 15.56815649, "ECCENTRICITY": 0.00014394, "INCLINATION": 42.9995, "RA_OF_ASC_NODE": 78.9438, "ARG_OF_PERICENTER": 278.1816, "MEAN_ANOMALY": 131.0486, "EPHEMERIS_TYPE": 0, "CLASSIFICATION_TYPE": "U", "NORAD_CAT_ID": 66974, "ELEMENT_SET_NO": 999, "REV_AT_EPOCH": 416, "BSTAR": -0.031015958, "MEAN_MOTION_DOT": -0.02040031, "MEAN_MOTION_DDOT": 0}, "tle": {"line1": "1 66974U 25288R   25361.25002315 -.02040031  00000+0 -31016-1 0  9995", "line2": "2 66974  42.9995  78.9438 0001439 278.1816 131.0486 15.56815649  4165"}}, "geometry": {"type": "Point", "coordinates": [177.42287077058123, 42.468441804813274]}}, {"type": "Feature", "properties": {"norad_id": 66975, "name": "STARLINK-35777", "group": "last-30-days", "lat": 41.86379038604054, "lon": -177.47384935098407, "alt_km": 396.34369634923314, "timestamp": "2025-12-27T15:27:09.832640+00:00", "meta": {"OBJECT_NAME": "STARLINK-35777", "OBJECT_ID": "2025-288S", "EPOCH": "2025-12-27T06:00:02.000160", "MEAN_MOTION": 15.56819262, "ECCENTRICITY": 0.00013781, "INCLINATION": 42.9995, "RA_OF_ASC_NODE": 78.9332, "ARG_OF_PERICENTER": 272.2683, "MEAN_ANOMALY": 140.7956, "EPHEMERIS_TYPE": 0, "CLASSIFICATION_TYPE": "U", "NORAD_CAT_ID": 66975, "ELEMENT_SET_NO": 999, "REV_AT_EPOCH": 416, "BSTAR": -0.031080868, "MEAN_MOTION_DOT": -0.02044055, "MEAN_MOTION_DDOT": 0}, "tle": {"line1": "1 66975U 25288S   25361.25002315 -.02044055  00000+0 -31081-1 0  9998", "line2": "2 66975  42.9995  78.9332 0001378 272.2683 140.7956 15.56819262  4162"}}, "geometry": {"type": "Point", "coordinates": [-177.47384935098407, 41.86379038604054]}}, {"type": "Feature", "properties": {"norad_id": 66976, "name": "STARLINK-35772", "group": "last-30-days", "lat": -11.865024757455178, "lon": -88.82017331487019, "alt_km": 444.9611858364151, "timestamp": "2025-12-27T15:27:09.832683+00:00", "meta": {"OBJECT_NAME": "STARLINK-35772", "OBJECT_ID": "2025-288T", "EPOCH": "2025-12-27T06:00:02.000160", "MEAN_MOTION": 15.40650881, "ECCENTRICITY": 0.0001603, "INCLINATION": 43.0005, "RA_OF_ASC_NODE": 80.4201, "ARG_OF_PERICENTER": 269.4805, "MEAN_ANOMALY": 261.0085, "EPHEMERIS_TYPE": 0, "CLASSIFICATION_TYPE": "U", "NORAD_CAT_ID": 66976, "ELEMENT_SET_NO": 999, "REV_AT_EPOCH": 416, "BSTAR": 0.0011629357, "MEAN_MOTION_DOT": 0.00048505, "MEAN_MOTION_DDOT": 0}, "tle": {"line1": "1 66976U 25288T   25361.25002315  .00048505  00000+0  11629-2 0  9996", "line2": "2 66976  43.0005  80.4201 0001603 269.4805 261.0085 15.40650881  4168"}}, "geometry": {"type": "Point", "coordinates": [-88.82017331487019, -11.865024757455178]}}, {"type": "Feature", "properties": {"norad_id": 66977, "name": "STARLINK-35770", "group": "last-30-days", "lat": 41.477684721311135, "lon": -174.96066640879877, "alt_km": 396.4249201430175, "timestamp": "2025-12-27T15:27:09.832698+00:00", "meta": {"OBJECT_NAME": "STARLINK-35770", "OBJECT_ID": "2025-288U", "EPOCH": "2025-12-27T06:00:02.000160", "MEAN_MOTION": 15.56817821, "ECCENTRICITY": 0.00014089, "INCLINATION": 42.9998, "RA_OF_ASC_NODE": 78.9293, "ARG_OF_PERICENTER": 275.3641, "MEAN_ANOMALY": 139.6163, "EPHEMERIS_TYPE": 0, "CLASSIFICATION_TYPE": "U", "NORAD_CAT_ID": 66977, "ELEMENT_SET_NO": 999, "REV_AT_EPOCH": 416, "BSTAR": -0.031036971, "MEAN_MOTION_DOT": -0.02041395, "MEAN_MOTION_DDOT": 0}, "tle": {"line1": "1 66977U 25288U   25361.25002315 -.02041395  00000+0 -31037-1 0  9995", "line2": "2 66977  42.9998  78.9293 0001408 275.3641 139.6163 15.56817821  4161"}}, "geometry": {"type": "Point", "coordinates": [-174.96066640879877, 41.477684721311135]}}, {"type": "Feature", "properties": {"norad_id": 66978, "name": "STARLINK-35787", "group": "last-30-days", "lat": 40.00012331769935, "lon": -167.6283479532965, "alt_km": 396.6724527950919, "timestamp": "2025-12-27T15:27:09.832711+00:00", "meta": {"OBJECT_NAME": "STARLINK-35787", "OBJECT_ID": "2025-288V", "EPOCH": "2025-12-27T06:00:02.000160", "MEAN_MOTION": 15.5681484, "ECCENTRICITY": 0.00014267, "INCLINATION": 43.0002, "RA_OF_ASC_NODE": 78.9141, "ARG_OF_PERICENTER": 280.8074, "MEAN_ANOMALY": 139.9261, "EPHEMERIS_TYPE": 0, "CLASSIFICATION_TYPE": "U", "NORAD_CAT_ID": 66978, "ELEMENT_SET_NO": 999, "REV_AT_EPOCH": 416, "BSTAR": -0.031012149, "MEAN_MOTION_DOT": -0.02039742, "MEAN_MOTION_DDOT": 0}, "tle": {"line1": "1 66978U 25288V   25361.25002315 -.02039742  00000+0 -31012-1 0  9992", "line2": "2 66978  43.0002  78.9141 0001426 280.8074 139.9261 15.56814840  4163"}}, "geometry": {"type": "Point", "coordinates": [-167.6283479532965, 40.00012331769935]}}, {"type": "Feature", "properties": {"norad_id": 66979, "name": "STARLINK-36107", "group": "last-30-days", "lat": 39.40707651583994, "lon": -165.26143154288974, "alt_km": 396.6550039827307, "timestamp": "2025-12-27T15:27:09.832721+00:00", "meta": {"OBJECT_NAME": "STARLINK-36107", "OBJECT_ID": "2025-288W", "EPOCH": "2025-12-27T06:00:02.000160", "MEAN_MOTION": 15.56816688, "ECCENTRICITY": 0.00013307, "INCLINATION": 43.0001, "RA_OF_ASC_NODE": 78.9101, "ARG_OF_PERICENTER": 272.607, "MEAN_ANOMALY": 150.044, "EPHEMERIS_TYPE": 0, "CLASSIFICATION_TYPE": "U", "NORAD_CAT_ID": 66979, "ELEMENT_SET_NO": 999, "REV_AT_EPOCH": 416, "BSTAR": -0.031037815, "MEAN_MOTION_DOT": -0.02041317, "MEAN_MOTION_DDOT": 0}, "tle": {"line1": "1 66979U 25288W   25361.25002315 -.02041317  00000+0 -31038-1 0  9992", "line2": "2 66979  43.0001  78.9101 0001330 272.6070 150.0440 15.56816688  4163"}}, "geometry": {"type": "Point", "coordinates": [-165.26143154288974, 39.40707651583994]}}]}